NORAD_CAT_ID,OBJECT_NAME,OBJECT_TYPE,EPOCH,MEAN_MOTION,ECCENTRICITY,INCLINATION,RA_OF_ASC_NODE,ARG_OF_PERICENTER,MEAN_ANOMALY,BSTAR,MEAN_MOTION_DOT,MEAN_MOTION_DDOT,TLE_LINE0,TLE_LINE1,TLE_LINE2,SEMIMAJOR_AXIS,PERIOD,APOGEE,PERIGEE,DECAYED
52489.0,STARLINK-3923,PAYLOAD,2022-10-13 03:53:35,15.08845767,0.0001921999999999,53.2193,241.5351,39.5181,320.5951,4.0526e-05,3.57e-06,0.0,0 STARLINK-3923,1 52489U 22049AQ  22286.16221173  .00000357  00000-0  40526-4 0  9994,2 52489  53.2193 241.5351 0001922  39.5181 320.5951 15.08845767 24681,6917.863,95.437,541.057,538.398,0.0
52489.0,STARLINK-3923,PAYLOAD,2022-10-13 07:04:20,15.08852461,0.0001906999999999,53.2195,240.9402,39.4344,320.6786,0.00010341,1.359e-05,0.0,0 STARLINK-3923,1 52489U 22049AQ  22286.29468600  .00001359  00000-0  10341-3 0  9990,2 52489  53.2195 240.9402 0001907  39.4344 320.6786 15.08852461 24547,6917.842,95.437,541.0269999999998,538.388,0.0
52489.0,STARLINK-3923,PAYLOAD,2022-10-13 21:22:49,15.08839655,0.0001721999999999,53.2213,238.2658,50.044,310.0703,0.00021035,3.061e-05,0.0,0 STARLINK-3923,1 52489U 22049AQ  22286.89085260  .00003061  00000-0  21035-3 0  9997,2 52489  53.2213 238.2658 0001722  50.0440 310.0703 15.08839655 24634,6917.880999999999,95.438,540.938,538.555,0.0
52489.0,STARLINK-3923,PAYLOAD,2022-10-14 03:44:22,15.088371,0.0001783,53.2201,237.0758,46.9243,313.1899,0.00015757,2.22e-05,0.0,0 STARLINK-3923,1 52489U 22049AQ  22287.15581682  .00002220  00000-0  15757-3 0  9996,2 52489  53.2201 237.0758 0001783  46.9243 313.1899 15.08837100 24836,6917.889,95.438,540.988,538.521,0.0
52489.0,STARLINK-3923,PAYLOAD,2022-10-14 13:16:40,15.08848387,0.0001720999999999,53.2198,235.291,44.6646,315.4484,0.00017969,2.574e-05,0.0,0 STARLINK-3923,1 52489U 22049AQ  22287.55324844  .00002574  00000-0  17969-3 0  9994,2 52489  53.2198 235.2910 0001721  44.6646 315.4484 15.08848387 24895,6917.855,95.437,540.91,538.529,0.0
52489.0,STARLINK-3923,PAYLOAD,2022-10-14 21:13:36,15.08849595,0.0001554999999999,53.2201,233.8061,53.8288,306.2848,7.3368e-05,8.8e-06,0.0,0 STARLINK-3923,1 52489U 22049AQ  22287.88444747  .00000880  00000-0  73368-4 0  9999,2 52489  53.2201 233.8061 0001555  53.8288 306.2848 15.08849595 24782,6917.851,95.437,540.7919999999998,538.64,0.0
52489.0,STARLINK-3923,PAYLOAD,2022-10-15 06:45:54,15.088497899999998,0.0001743,53.2202,232.0206,45.4454,314.6681,7.2097e-05,8.599999999999999e-06,0.0,0 STARLINK-3923,1 52489U 22049AQ  22288.28188603  .00000860  00000-0  72097-4 0  9996,2 52489  53.2202 232.0206 0001743  45.4454 314.6681 15.08849790 24848,6917.85,95.437,540.9209999999998,538.51,0.0
52489.0,STARLINK-3923,PAYLOAD,2022-10-15 19:28:59,15.08847687,0.0001713,53.2198,229.6437,48.8702,311.2438,5.819e-05,6.38e-06,0.0,0 STARLINK-3923,1 52489U 22049AQ  22288.81180489  .00000638  00000-0  58190-4 0  9990,2 52489  53.2198 229.6437 0001713  48.8702 311.2438 15.08847687 25083,6917.857,95.437,540.9069999999998,538.5369999999998,0.0
52489.0,STARLINK-3923,PAYLOAD,2022-10-16 05:01:19,15.08834486,0.0001733,53.2199,227.8587,47.7149,312.399,4.5191000000000005e-06,-2.16e-06,0.0,0 STARLINK-3923,1 52489U 22049AQ  22289.20925378 -.00000216  00000-0  45191-5 0  9999,2 52489  53.2199 227.8587 0001733  47.7149 312.3990 15.08834486 25140,6917.897,95.438,540.961,538.563,0.0
52489.0,STARLINK-3923,PAYLOAD,2022-10-16 08:12:06,15.08825312,0.0001821999999999,53.2192,227.2635,33.2602,326.8504,9.5234e-05,1.227e-05,0.0,0 STARLINK-3923,1 52489U 22049AQ  22289.34173756  .00001227  00000-0  95234-4 0  9993,2 52489  53.2192 227.2635 0001822  33.2602 326.8504 15.08825312 25165,6917.925,95.438,541.0509999999998,538.53,0.0
52489.0,STARLINK-3923,PAYLOAD,2022-10-16 19:19:47,15.0883494,0.0002068,53.2207,225.1816,35.003,325.1097,6.5027e-05,7.47e-06,0.0,0 STARLINK-3923,1 52489U 22049AQ  22289.80541141  .00000747  00000-0  65027-4 0  9994,2 52489  53.2207 225.1816 0002068  35.0030 325.1097 15.08834940 25232,6917.896,95.438,541.191,538.33,0.0
52489.0,STARLINK-3923,PAYLOAD,2022-10-17 12:49:01,15.08843531,0.0001882,53.2199,221.9104,46.2303,313.8844,-1.1698e-06,-3.07e-06,0.0,0 STARLINK-3923,1 52489U 22049AQ  22290.53404816 -.00000307  00000-0 -11698-5 0  9993,2 52489  53.2199 221.9104 0001882  46.2303 313.8844 15.08843531 25348,6917.87,95.437,541.0369999999998,538.433,0.0
52489.0,STARLINK-3923,PAYLOAD,2022-10-18 04:42:53,15.08830533,0.0001615,53.2198,218.9369,60.6533,299.462,-7.9624e-06,-4.15e-06,0.0,0 STARLINK-3923,1 52489U 22049AQ  22291.19645700 -.00000415  00000-0 -79624-5 0  9998,2 52489  53.2198 218.9369 0001615  60.6533 299.4620 15.08830533 25445,6917.909000000002,95.438,540.8919999999998,538.6569999999998,0.0
52489.0,STARLINK-3923,PAYLOAD,2022-10-18 12:39:50,15.08819022,0.0001807,53.2198,217.4503,44.8649,315.2489,-1.9601e-05,-6e-06,0.0,0 STARLINK-3923,1 52489U 22049AQ  22291.52766863 -.00000600  00000-0 -19601-4 0  9993,2 52489  53.2198 217.4503 0001807  44.8649 315.2489 15.08819022 25499,6917.945,95.439,541.06,538.559,0.0
52489.0,STARLINK-3923,PAYLOAD,2022-10-18 19:01:23,15.08823584,0.0001843,53.2194,216.2611,43.4132,316.7005,-3.5868e-05,-8.59e-06,0.0,0 STARLINK-3923,1 52489U 22049AQ  22291.79262872 -.00000859  00000-0 -35868-4 0  9992,2 52489  53.2194 216.2611 0001843  43.4132 316.7005 15.08823584 25379,6917.931,95.439,541.071,538.521,0.0
52489.0,STARLINK-3923,PAYLOAD,2022-10-19 04:33:41,15.08833574,0.0001802,53.2196,214.4771,43.5345,316.579,-1.7477e-06,-3.16e-06,0.0,0 STARLINK-3923,1 52489U 22049AQ  22292.19006401 -.00000316  00000-0 -17477-5 0  9996,2 52489  53.2196 214.4771 0001802  43.5345 316.5790 15.08833574 25593,6917.9,95.438,541.012,538.518,0.0
52489.0,STARLINK-3923,PAYLOAD,2022-10-19 22:02:56,15.08834081,0.0001825,53.2198,211.2067,42.7361,317.3773,4.9974e-05,5.07e-06,0.0,0 STARLINK-3923,1 52489U 22049AQ  22292.91870459  .00000507  00000-0  49974-4 0  9994,2 52489  53.2198 211.2067 0001825  42.7361 317.3773 15.08834081 25541,6917.898,95.438,541.026,538.501,0.0
52489.0,STARLINK-3923,PAYLOAD,2022-10-20 04:24:28,15.08832623,0.0001841,53.2196,210.0172,44.1663,315.9475,0.00012112,1.64e-05,0.0,0 STARLINK-3923,1 52489U 22049AQ  22293.18366441  .00001640  00000-0  12112-3 0  9997,2 52489  53.2196 210.0172 0001841  44.1663 315.9475 15.08832623 25589,6917.903,95.438,541.0419999999998,538.494,0.0
52489.0,STARLINK-3923,PAYLOAD,2022-10-20 18:42:56,15.08833944,0.0001854,53.2196,207.3412,44.7161,315.398,0.00012735,1.739e-05,0.0,0 STARLINK-3923,1 52489U 22049AQ  22293.77982612  .00001739  00000-0  12735-3 0  9996,2 52489  53.2196 207.3412 0001854  44.7161 315.3980 15.08833944 25838,6917.899,95.438,541.0459999999998,538.481,0.0
52489.0,STARLINK-3923,PAYLOAD,2022-10-21 04:15:15,15.08839024,0.0001898,53.2196,205.5571,45.1242,314.9904,0.00014063,1.951e-05,0.0,0 STARLINK-3923,1 52489U 22049AQ  22294.17726388  .00001951  00000-0  14063-3 0  9999,2 52489  53.2196 205.5571 0001898  45.1242 314.9904 15.08839024 25732,6917.8830000000025,95.438,541.061,538.435,0.0
52489.0,STARLINK-3923,PAYLOAD,2022-10-21 18:33:43,15.08842727,0.0002005,53.22,202.8799,46.9613,313.1547,5.0404e-05,5.14e-06,0.0,0 STARLINK-3923,1 52489U 22049AQ  22294.77342373  .00000514  00000-0  50404-4 0  9997,2 52489  53.2200 202.8799 0002005  46.9613 313.1547 15.08842727 25820,6917.871999999999,95.437,541.124,538.35,0.0
52489.0,STARLINK-3923,PAYLOAD,2022-10-22 04:06:02,15.08847871,0.0002004,53.2201,201.0971,47.905,312.2113,8.6679e-05,1.092e-05,0.0,0 STARLINK-3923,1 52489U 22049AQ  22295.17085840  .00001092  00000-0  86679-4 0  9990,2 52489  53.2201 201.0971 0002004  47.9050 312.2113 15.08847871 26048,6917.856,95.437,541.1080000000002,538.335,0.0
52489.0,STARLINK-3923,PAYLOAD,2022-10-22 21:35:17,15.08835749,0.0002003,53.2207,197.8271,46.723,313.3929,-1.2939e-05,-4.94e-06,0.0,0 STARLINK-3923,1 52489U 22049AQ  22295.89950809 -.00000494  00000-0 -12939-4 0  9990,2 52489  53.2207 197.8271 0002003  46.7230 313.3929 15.08835749 26155,6917.893,95.438,541.144,538.373,0.0
52489.0,STARLINK-3923,PAYLOAD,2022-10-23 03:56:49,15.08843632,0.0002051,53.2209,196.6377,46.9059,313.2105,5.0479e-05,5.15e-06,0.0,0 STARLINK-3923,1 52489U 22049AQ  22296.16446129  .00000515  00000-0  50479-4 0  9999,2 52489  53.2209 196.6377 0002051  46.9059 313.2105 15.08843632 26194,6917.869000000002,95.437,541.153,538.315,0.0
52489.0,STARLINK-3923,PAYLOAD,2022-10-23 19:50:39,15.08855091,0.0002025,53.2208,193.6649,53.9964,306.1216,7.9578e-05,9.79e-06,0.0,0 STARLINK-3923,1 52489U 22049AQ  22296.82684886  .00000979  00000-0  79578-4 0  9991,2 52489  53.2208 193.6649 0002025  53.9964 306.1216 15.08855091 26136,6917.834,95.437,541.1,538.298,0.0
52489.0,STARLINK-3923,PAYLOAD,2022-10-24 10:09:08,15.08839373,0.0002089999999999,53.2211,190.9883,49.0048,311.1125,-5.5452e-05,-1.171e-05,0.0,0 STARLINK-3923,1 52489U 22049AQ  22297.42302012 -.00001171  00000-0 -55452-4 0  9998,2 52489  53.2211 190.9883 0002090  49.0048 311.1125 15.08839373 26388,6917.882,95.438,541.193,538.3009999999998,0.0
52489.0,STARLINK-3923,PAYLOAD,2022-10-25 02:03:02,15.08818873,0.0002331,53.2205,188.0112,52.7306,307.3899,-0.00017364,-3.049e-05,0.0,0 STARLINK-3923,1 52489U 22049AQ  22298.08544514 -.00003049  00000-0 -17364-3 0  9991,2 52489  53.2205 188.0112 0002331  52.7306 307.3899 15.08818873 26488,6917.945,95.439,541.423,538.197,0.0
52489.0,STARLINK-3923,PAYLOAD,2022-10-25 09:59:57,15.08829599,0.0001994,53.22,186.5272,52.2336,307.8836,-8.9224e-05,-1.708e-05,0.0,0 STARLINK-3923,1 52489U 22049AQ  22298.41663726 -.00001708  00000-0 -89224-4 0  9990,2 52489  53.2200 186.5272 0001994  52.2336 307.8836 15.08829599 26376,6917.9119999999975,95.438,541.1569999999998,538.398,0.0
52489.0,STARLINK-3923,PAYLOAD,2022-10-26 01:53:48,15.08838947,0.0001999,53.22,183.5534,54.4507,305.6671,-1.5911e-05,-5.41e-06,0.0,0 STARLINK-3923,1 52489U 22049AQ  22299.07903178 -.00000541  00000-0 -15911-4 0  9997,2 52489  53.2200 183.5534 0001999  54.4507 305.6671 15.08838947 26632,6917.884,95.438,541.131,538.366,0.0
